NORAD_CAT_ID,OBJECT_NAME,OBJECT_TYPE,EPOCH,MEAN_MOTION,ECCENTRICITY,INCLINATION,RA_OF_ASC_NODE,ARG_OF_PERICENTER,MEAN_ANOMALY,BSTAR,MEAN_MOTION_DOT,MEAN_MOTION_DDOT,TLE_LINE0,TLE_LINE1,TLE_LINE2,SEMIMAJOR_AXIS,PERIOD,APOGEE,PERIGEE,DECAYED
52685.0,STARLINK-4029,PAYLOAD,2023-01-18 12:15:29,15.08825929,0.0003137,53.2172,249.521,26.0837,334.0312,4.5188e-05,4.3e-06,0.0,0 STARLINK-4029,1 52685U 22053AF  23018.51075833  .00000430  00000-0  45188-4 0  9991,2 52685  53.2172 249.5210 0003137  26.0837 334.0312 15.08825929 38085,6917.923000000001,95.438,541.9590000000001,537.618,0.0
52685.0,STARLINK-4029,PAYLOAD,2023-01-18 13:50:52,15.08826909,0.0003128999999999,53.217,249.2249,22.2368,337.8759,9.3402e-05,1.198e-05,0.0,0 STARLINK-4029,1 52685U 22053AF  23018.57699641  .00001198  00000-0  93402-4 0  9990,2 52685  53.2170 249.2249 0003129  22.2368 337.8759 15.08826909 37725,6917.92,95.438,541.95,537.621,0.0
52685.0,STARLINK-4029,PAYLOAD,2023-01-18 21:47:47,15.08843602,0.0002845,53.2157,247.7359,26.5096,333.6041,0.00046072,7.053e-05,0.0,0 STARLINK-4029,1 52685U 22053AF  23018.90819409  .00007053  00000-0  46072-3 0  9999,2 52685  53.2157 247.7359 0002845  26.5096 333.6041 15.08843602 37776,6917.869000000001,95.437,541.703,537.766,0.0
52685.0,STARLINK-4029,PAYLOAD,2023-01-19 00:58:34,15.08846914,0.0002628999999999,53.2168,247.1375,30.902,329.2127,0.00042042,6.409999999999999e-05,0.0,0 STARLINK-4029,1 52685U 22053AF  23019.04067235  .00006410  00000-0  42042-3 0  9996,2 52685  53.2168 247.1375 0002629  30.9020 329.2127 15.08846914 38165,6917.859,95.437,541.543,537.906,0.0
52685.0,STARLINK-4029,PAYLOAD,2023-01-19 15:17:03,15.08837943,0.0002702,53.2158,244.46400000000003,19.4257,340.6837,0.00059702,9.226e-05,0.0,0 STARLINK-4029,1 52685U 22053AF  23019.63684031  .00009226  00000-0  59702-3 0  9999,2 52685  53.2158 244.4640 0002702  19.4257 340.6837 15.08837943 37880,6917.887,95.438,541.621,537.882,0.0
52685.0,STARLINK-4029,PAYLOAD,2023-01-20 10:21:40,15.08839337,0.0002842,53.2158,240.8957,22.8431,337.2687,0.00011027,1.467e-05,0.0,0 STARLINK-4029,1 52685U 22053AF  23020.43171895  .00001467  00000-0  11027-3 0  9995,2 52685  53.2158 240.8957 0002842  22.8431 337.2687 15.08839337 38377,6917.882,95.438,541.7130000000001,537.781,0.0
52685.0,STARLINK-4029,PAYLOAD,2023-01-20 21:29:22,15.08845079,0.0002703999999999,53.2166,238.8143,32.3261,327.7896,0.00012733,1.739e-05,0.0,0 STARLINK-4029,1 52685U 22053AF  23020.89539484  .00001739  00000-0  12733-3 0  9994,2 52685  53.2166 238.8143 0002704  32.3261 327.7896 15.08845079 38077,6917.865,95.437,541.6,537.859,0.0
52685.0,STARLINK-4029,PAYLOAD,2023-01-21 14:58:36,15.08840754,0.0002773,53.2165,235.5412,28.3735,331.7407,2.5743e-05,1.21e-06,0.0,0 STARLINK-4029,1 52685U 22053AF  23021.62403456  .00000121  00000-0  25743-4 0  9995,2 52685  53.2165 235.5412 0002773  28.3735 331.7407 15.08840754 38186,6917.878000000001,95.438,541.661,537.825,0.0
52685.0,STARLINK-4029,PAYLOAD,2023-01-22 16:24:46,15.08842804,0.0002957,53.2163,230.7853,30.0647,330.0515,4.0281e-05,3.53e-06,0.0,0 STARLINK-4029,1 52685U 22053AF  23022.68387343  .00000353  00000-0  40281-4 0  9999,2 52685  53.2163 230.7853 0002957  30.0647 330.0515 15.08842804 38344,6917.871999999999,95.437,541.7819999999999,537.691,0.0
52685.0,STARLINK-4029,PAYLOAD,2023-01-23 19:26:20,15.088353,0.0003015,53.2165,225.7301,28.1332,331.9823,1.2221e-05,-9.4e-07,0.0,0 STARLINK-4029,1 52685U 22053AF  23023.80995788 -.00000094  00000-0  12221-4 0  9998,2 52685  53.2165 225.7301 0003015  28.1332 331.9823 15.08835300 38517,6917.895,95.438,541.846,537.674,0.0
52685.0,STARLINK-4029,PAYLOAD,2023-01-25 06:24:48,15.08841955,0.0002985,53.217,219.1882,27.7816,332.3335,4.976e-05,5.03e-06,0.0,0 STARLINK-4029,1 52685U 22053AF  23025.26723138  .00000503  00000-0  49760-4 0  9990,2 52685  53.2170 219.1882 0002985  27.7816 332.3335 15.08841955 39103,6917.874,95.437,541.804,537.674,0.0
52685.0,STARLINK-4029,PAYLOAD,2023-01-25 19:07:53,15.08840796,0.0002951,53.2162,216.8087,30.5199,329.5965,0.00012915,1.768e-05,0.0,0 STARLINK-4029,1 52685U 22053AF  23025.79714993  .00001768  00000-0  12915-3 0  9992,2 52685  53.2162 216.8087 0002951  30.5199 329.5965 15.08840796 39181,6917.878000000001,95.438,541.784,537.701,0.0
52685.0,STARLINK-4029,PAYLOAD,2023-01-25 22:18:39,15.08846,0.0003002,53.2166,216.2141,28.7025,331.4132,0.00012273,1.666e-05,0.0,0 STARLINK-4029,1 52685U 22053AF  23025.92962656  .00001666  00000-0  12273-3 0  9992,2 52685  53.2166 216.2141 0003002  28.7025 331.4132 15.08846000 39200,6917.861999999999,95.437,541.804,537.65,0.0
52685.0,STARLINK-4029,PAYLOAD,2023-01-26 15:47:53,15.08848325,0.0002757,53.2166,212.9421,31.9466,328.1692,6.8317e-05,7.99e-06,0.0,0 STARLINK-4029,1 52685U 22053AF  23026.65826337  .00000799  00000-0  68317-4 0  9995,2 52685  53.2166 212.9421 0002757  31.9466 328.1692 15.08848325 38941,6917.855,95.437,541.627,537.813,0.0
52685.0,STARLINK-4029,PAYLOAD,2023-01-27 12:27:55,15.08837793,0.000301,53.2172,209.0761,32.1919,327.9256,2.8681e-05,1.68e-06,0.0,0 STARLINK-4029,1 52685U 22053AF  23027.51939038  .00000168  00000-0  28681-4 0  9994,2 52685  53.2172 209.0761 0003010  32.1919 327.9256 15.08837793 39076,6917.887,95.438,541.8340000000001,537.67,0.0
52685.0,STARLINK-4029,PAYLOAD,2023-01-27 18:49:28,15.08839867,0.0003151999999999,53.2174,207.8859,28.9485,331.1682,-9.6757e-05,-1.828e-05,0.0,0 STARLINK-4029,1 52685U 22053AF  23027.78435303 -.00001828  00000-0 -96757-4 0  9994,2 52685  53.2174 207.8859 0003152  28.9485 331.1682 15.08839867 39489,6917.880999999999,95.438,541.9259999999999,537.565,0.0
52685.0,STARLINK-4029,PAYLOAD,2023-01-28 04:21:47,15.08821952,0.0003108,53.2168,206.1029,30.9537,329.1638,0.00022202,3.245e-05,0.0,0 STARLINK-4029,1 52685U 22053AF  23028.18179588  .00003245  00000-0  22202-3 0  9995,2 52685  53.2168 206.1029 0003108  30.9537 329.1638 15.08821952 39175,6917.936,95.439,541.951,537.65,0.0
52685.0,STARLINK-4029,PAYLOAD,2023-01-28 12:18:42,15.0883762,0.0002919,53.2169,204.6155,29.793,330.3228,4.7066e-05,4.61e-06,0.0,0 STARLINK-4029,1 52685U 22053AF  23028.51298904  .00000461  00000-0  47066-4 0  9999,2 52685  53.2169 204.6155 0002919  29.7930 330.3228 15.08837620 39225,6917.888,95.438,541.772,537.733,0.0
52685.0,STARLINK-4029,PAYLOAD,2023-01-28 18:40:14,15.08842002,0.0003134,53.2168,203.4274,28.8246,331.2919,7.8639e-05,9.63e-06,0.0,0 STARLINK-4029,1 52685U 22053AF  23028.77794602  .00000963  00000-0  78639-4 0  9990,2 52685  53.2168 203.4274 0003134  28.8246 331.2919 15.08842002 39635,6917.874,95.437,541.907,537.571,0.0
52685.0,STARLINK-4029,PAYLOAD,2023-01-29 04:12:33,15.08844526,0.0003169,53.217,201.643,29.6666,330.4505,0.00010473,1.379e-05,0.0,0 STARLINK-4029,1 52685U 22053AF  23029.17538292  .00001379  00000-0  10473-3 0  9999,2 52685  53.2170 201.6430 0003169  29.6666 330.4505 15.08844526 39326,6917.867,95.437,541.924,537.539,0.0
52685.0,STARLINK-4029,PAYLOAD,2023-01-29 16:55:38,15.0883366,0.0003184,53.217,199.264,31.009,329.109,6.3255e-05,7.18e-06,0.0,0 STARLINK-4029,1 52685U 22053AF  23029.70531190  .00000718  00000-0  63255-4 0  9991,2 52685  53.2170 199.2640 0003184  31.0090 329.1090 15.08833660 39406,6917.9,95.438,541.967,537.562,0.0
52685.0,STARLINK-4029,PAYLOAD,2023-01-29 20:06:25,15.08836694,0.0003207,53.2171,198.6693,31.2774,328.8409,8.5115e-05,1.066e-05,0.0,0 STARLINK-4029,1 52685U 22053AF  23029.83778960  .00001066  00000-0  85115-4 0  9999,2 52685  53.2171 198.6693 0003207  31.2774 328.8409 15.08836694 39797,6917.89,95.438,541.974,537.537,0.0
52685.0,STARLINK-4029,PAYLOAD,2023-01-30 13:35:40,15.0883326,0.0003324,53.217,195.3983,32.6375,327.4823,-2.7945e-05,-7.33e-06,0.0,0 STARLINK-4029,1 52685U 22053AF  23030.56643620 -.00000733  00000-0 -27945-4 0  9994,2 52685  53.2170 195.3983 0003324  32.6375 327.4823 15.08833260 39908,6917.901,95.438,542.066,537.466,0.0
52685.0,STARLINK-4029,PAYLOAD,2023-01-31 03:54:07,15.0884155,0.0003246,53.2169,192.7228,32.2011,327.9178,5.1324e-05,5.28e-06,0.0,0 STARLINK-4029,1 52685U 22053AF  23031.16258831  .00000528  00000-0  51324-4 0  9995,2 52685  53.2169 192.7228 0003246  32.2011 327.9178 15.08841550 39623,6917.876,95.437,541.986,537.495,0.0
52685.0,STARLINK-4029,PAYLOAD,2023-01-31 11:51:02,15.0884501,0.0003247,53.2169,191.236,32.2415,327.8775,0.00012365,1.68e-05,0.0,0 STARLINK-4029,1 52685U 22053AF  23031.49378285  .00001680  00000-0  12365-3 0  9998,2 52685  53.2169 191.2360 0003247  32.2415 327.8775 15.08845010 40048,6917.865,95.437,541.976,537.484,0.0
52685.0,STARLINK-4029,PAYLOAD,2023-02-01 10:06:26,15.08842366,0.0003092,53.2174,187.0728,29.4832,330.6334,0.00013983,1.938e-05,0.0,0 STARLINK-4029,1 52685U 22053AF  23032.42114129  .00001938  00000-0  13983-3 0  9990,2 52685  53.2174 187.0728 0003092  29.4832 330.6334 15.08842366 39811,6917.873,95.437,541.877,537.599,0.0
52685.0,STARLINK-4029,PAYLOAD,2023-02-02 13:07:59,15.08845119,0.0003061,53.2178,182.017,30.8978,329.2194,3.3696e-05,2.48e-06,0.0,0 STARLINK-4029,1 52685U 22053AF  23033.54721906  .00000248  00000-0  33696-4 0  9998,2 52685  53.2178 182.0170 0003061  30.8978 329.2194 15.08845119 40352,6917.865,95.437,541.847,537.612,0.0
52685.0,STARLINK-4029,PAYLOAD,2023-02-02 17:54:08,15.08900198,0.0003539,53.2168,181.1285,48.8651,311.2646,-0.00088512,-0.00014373,0.0,0 STARLINK-4029,1 52685U 22053AF  23033.74593028 -.00014373  00000-0 -88512-3 0  9994,2 52685  53.2168 181.1285 0003539  48.8651 311.2646 15.08900198 40010,6917.696,95.434,542.01,537.113,0.0
52685.0,STARLINK-4029,PAYLOAD,2023-02-03 09:48:01,15.08842362,0.0003763,53.2167,178.155,31.2985,328.8231,-7.6168e-05,-1.501e-05,0.0,0 STARLINK-4029,1 52685U 22053AF  23034.40834540 -.00001501  00000-0 -76168-4 0  9999,2 52685  53.2167 178.1550 0003763  31.2985 328.8231 15.08842362 40118,6917.873,95.437,542.341,537.135,0.0
